[{"OBJECT_NAME":"AAC-AIS-SAT2","OBJECT_ID":"2023-084BY","EPOCH":"2026-03-09T22:09:39.097152","MEAN_MOTION":14.84898245,"ECCENTRICITY":0.00584087,"INCLINATION":98.1313,"RA_OF_ASC_NODE":206.6441,"ARG_OF_PERICENTER":61.4701,"MEAN_ANOMALY":299.2376,"EPHEMERIS_TYPE":0,"CLASSIFICATION_TYPE":"U","NORAD_CAT_ID":56996,"ELEMENT_SET_NO":999,"REV_AT_EPOCH":13864,"BSTAR":0.00055032793,"MEAN_MOTION_DOT":4.769e-5,"MEAN_MOTION_DDOT":0},{"OBJECT_NAME":"STARLINK-36167","OBJECT_ID":"2025-293J","EPOCH":"2026-03-09T16:00:03.000096","MEAN_MOTION":14.98353371,"ECCENTRICITY":0.00035327,"INCLINATION":69.9998,"RA_OF_ASC_NODE":94.3623,"ARG_OF_PERICENTER":273.6486,"MEAN_ANOMALY":249.1448,"EPHEMERIS_TYPE":0,"CLASSIFICATION_TYPE":"U","NORAD_CAT_ID":67011,"ELEMENT_SET_NO":999,"REV_AT_EPOCH":533,"BSTAR":-0.0036450478,"MEAN_MOTION_DOT":-0.00043345,"MEAN_MOTION_DDOT":0}]
